OSCAR 7 (AO-7)          
1 07530U 74089B   21087.16212949 -.00000047  00000-0 -10496-4 0  9992
2 07530 101.8463  61.7771 0012168 176.8513 195.9574 12.53648020121788
PHASE 3B (AO-10)        
1 14129U 83058B   21083.99518380  .00000178  00000-0  00000-0 0  9994
2 14129  25.8983 168.5745 6041489 320.7017   8.3256  2.05869501256162
UOSAT 2 (UO-11)         
1 14781U 84021B   21086.97030915  .00000201  00000-0  30641-4 0  9998
2 14781  97.5931  90.8258 0008318   0.2731 359.8487 14.83263983973855
LUSAT (LO-19)           
1 20442U 90005G   21086.86269026  .00000009  00000-0  19961-4 0  9991
2 20442  98.7322  41.6273 0012587  44.9340 315.2860 14.32980622629206
EYESAT A (AO-27)        
1 22825U 93061C   21086.80034367  .00000002  00000-0  18919-4 0  9990
2 22825  98.9234 102.3894 0007352 272.7915  87.2425 14.30109780434588
ITAMSAT (IO-26)         
1 22826U 93061D   21087.34964146  .00000009  00000-0  21418-4 0  9993
2 22826  98.9175 102.8689 0007905 256.7782 103.2518 14.30448014434889
RADIO ROSTO (RS-15)     
1 23439U 94085A   21087.55156858 -.00000037  00000-0  15882-3 0  9996
2 23439  64.8137 146.8039 0158572 349.6866  10.0817 11.27570553 81218
JAS-2 (FO-29)           
1 24278U 96046B   21087.18554924 -.00000055  00000-0 -18749-4 0  9999
2 24278  98.5736 165.9043 0350337   0.3628 359.7705 13.53102384215500
TECHSAT 1B (GO-32)      
1 25397U 98043D   21086.81216689 -.00000015  00000-0  13096-4 0  9998
2 25397  98.7631  32.6238 0001064  15.0280 345.0930 14.23704214179877
ISS (ZARYA)             
1 25544U 98067A   21087.53301053  .00002017  00000-0  44828-4 0  9998
2 25544  51.6463  21.6414 0003030 154.2254  12.5510 15.48957024276097
PCSAT (NO-44)           
1 26931U 01043C   21086.87159216 -.00000004  00000-0  30227-4 0  9998
2 26931  67.0500 130.9838 0007398 266.0763  93.9493 14.30611512 17571
SAUDISAT 1C (SO-50)     
1 27607U 02058C   21086.84577820  .00000084  00000-0  32442-4 0  9996
2 27607  64.5549 227.8879 0032333  53.5148 306.8926 14.75727907982675
CUTE-1 (CO-55)          
1 27844U 03031E   21087.43525882  .00000074  00000-0  53182-4 0  9991
2 27844  98.6830  96.8684 0009027 318.7447  41.3048 14.22297243920506
CUBESAT XI-IV (CO-57)   
1 27848U 03031J   21086.84143575  .00000062  00000-0  47852-4 0  9998
2 27848  98.6888  96.8510 0009160 334.6710  25.4018 14.21875543920244
MOZHAYETS 4 (RS-22)     
1 27939U 03042A   21087.48703222  .00000231  00000-0  49874-4 0  9997
2 27939  98.1250 225.2099 0013258 170.0769 190.0698 14.66960996935652
CUBESAT XI-V            
1 28895U 05043F   21087.36122966  .00000235  00000-0  53877-4 0  9991
2 28895  98.0444 222.4336 0018125 105.4095 254.9112 14.63884932822370
CUTE-1.7+APD II (CO-65) 
1 32785U 08021C   21086.86859848  .00000455  00000-0  54386-4 0  9993
2 32785  97.6046  68.9132 0011388 274.6510  85.3406 14.88668463700102
DELFI-C3 (DO-64)        
1 32789U 08021G   21087.37461579  .00002941  00000-0  19119-3 0  9990
2 32789  97.3856 125.8425 0013299  66.2298 294.0325 15.08677745704706
SEEDS II (CO-66)        
1 32791U 08021J   21086.70890001  .00000826  00000-0  88137-4 0  9992
2 32791  97.5662  74.7477 0011832 235.0988 124.9120 14.91327218700593
YUBILEINY (RS-30)       
1 32953U 08025A   21087.34229673  .00000028  00000-0  12906-3 0  9992
2 32953  82.5004 101.3805 0020099 150.5140 209.7079 12.43100878582909
KKS-1 (KISEKI)          
1 33499U 09002H   21087.44164544  .00000194  00000-0  36328-4 0  9999
2 33499  98.2814 315.5540 0008008 304.9404  55.1051 14.75634121654898
SWISSCUBE               
1 35932U 09051B   21087.49900824  .00000203  00000-0  56612-4 0  9990
2 35932  98.6078 284.9479 0007179 345.0689  15.0295 14.56506306611213
BEESAT-1                
1 35933U 09051C   21087.12445620  .00000171  00000-0  49467-4 0  9993
2 35933  98.6051 286.4039 0005709   2.3378 357.7845 14.56567669611271
ITUPSAT1                
1 35935U 09051E   21087.42394459  .00000154  00000-0  46470-4 0  9993
2 35935  98.6154 286.8669 0007977 358.5337   1.5835 14.55703140611010
XIWANG-1 (HOPE-1)       
1 36122U 09072B   21086.82511886 -.00000050  00000-0 -20583-4 0  9997
2 36122 100.1241  70.8941 0006877 292.4240  67.6145 13.16359410542154
JUGNU                   
1 37839U 11058B   21087.46036801  .00000333  00000-0  35762-4 0  9997
2 37839  19.9625   0.3973 0018789 279.2302 237.3088 14.12708368489107
SRMSAT                  
1 37841U 11058D   21087.30493910  .00000313  00000-0  26898-4 0  9999
2 37841  19.9722  71.5363 0012064 121.9318  11.6632 14.10689161488385
M-CUBED & EXP-1 PRIME   
1 37855U 11061F   21086.92023842  .00002858  00000-0  14454-3 0  9998
2 37855 101.7202 328.0551 0167664 313.2469  45.4850 15.07381143513890
STRAND-1                
1 39090U 13009E   21087.11521643  .00000077  00000-0  42094-4 0  9992
2 39090  98.4347 291.2048 0009594 153.9990 206.1679 14.35171906423396
SOMP                    
1 39134U 13015E   21086.85868010  .00003218  00000-0  14809-3 0  9992
2 39134  64.8628  77.7405 0005793 244.4246 115.6284 15.22222406438790
BEESAT-3                
1 39135U 13015F   21087.47773132  .00002411  00000-0  12368-3 0  9994
2 39135  64.8665 103.6020 0008699 201.9045 158.1711 15.19099419438730
BEESAT-2                
1 39136U 13015G   21087.37596330  .00001966  00000-0  10372-3 0  9994
2 39136  64.8743 109.9927 0028328 251.9803 107.8236 15.18476348438609
ZACUBE-1 (TSHEPISOSAT)  
1 39417U 13066B   21087.19839877  .00000491  00000-0  67212-4 0  9996
2 39417  97.5880  75.7610 0060154  68.0938 292.6657 14.81459939397042
GOMX-1                  
1 39430U 13066Q   21087.50236142  .00000475  00000-0  94376-4 0  9995
2 39430  97.8111  15.2282 0151215  10.3793 350.0451 14.59566841391231
CUBEBUG-2 (LO-74)       
1 39440U 13066AA  21087.18189080  .00000371  00000-0  57845-4 0  9993
2 39440  97.6681  60.5793 0080816 138.3916 222.3482 14.76190803395631
FUNCUBE-1 (AO-73)       
1 39444U 13066AE  21086.89446421  .00000641  00000-0  83992-4 0  9991
2 39444  97.5793  77.8198 0059128  60.0940 300.6129 14.82355065395355
UWE-3                   
1 39446U 13066AG  21086.88787705  .00000450  00000-0  65465-4 0  9998
2 39446  97.6300  67.3129 0071202 104.9253 255.9857 14.78726009394457
SPROUT                  
1 39770U 14029E   21087.53259219  .00001245  00000-0  14074-3 0  9997
2 39770  97.9064 198.9279 0010208 111.3331 248.8977 14.88275839371306
UNISAT-6                
1 40012U 14033C   21087.12396645  .00000348  00000-0  58533-4 0  9995
2 40012  97.6837 293.7855 0058545 162.0273 198.3025 14.74269043364210
DUCHIFAT-1              
1 40021U 14033M   21086.81092758  .00000749  00000-0  81029-4 0  9999
2 40021  97.9663  26.1747 0014304  74.7799 285.4999 14.91241602368116
QB50P1                  
1 40025U 14033R   21086.79331248  .00000572  00000-0  66200-4 0  9998
2 40025  97.9296  17.2887 0013902  87.2557 273.0251 14.89371684367262
NUDT-PHONESAT           
1 40900U 15049B   21087.40883654  .00005055  00000-0  19990-3 0  9994
2 40900  97.4246 102.0723 0013800  68.6857  38.7748 15.25839661306466
ZDPS 2A                 
1 40901U 15049C   21087.46398134  .00002547  00000-0  12395-3 0  9990
2 40901  97.4643  95.5756 0014881 102.2396  55.7655 15.19210187305670
ZDPS 2B                 
1 40902U 15049D   21087.37119906  .00002559  00000-0  12442-3 0  9995
2 40902  97.4671  92.7882 0014960 100.2763  14.5211 15.19234582305637
XW-2A                   
1 40903U 15049E   21087.41723674  .00004711  00000-0  10257-3 0  9998
2 40903  97.2467 142.1316 0011078 316.5169 166.5705 15.44724948310281
KAITUO 1A               
1 40904U 15049F   21087.44809407  .00000744  00000-0  42031-4 0  9999
2 40904  97.4862  90.3617 0015960 115.6094  42.8704 15.16067752305269
2015-049G               
1 40905U 15049G   21087.41676377  .00000898  00000-0  51680-4 0  9995
2 40905  97.4989  87.4370 0017069 115.2850  22.2358 15.14890492305069
XW-2C                   
1 40906U 15049H   21087.41782693  .00001447  00000-0  77330-4 0  9996
2 40906  97.4866  90.7929 0016301 107.0353  24.9820 15.16578590305287
XW-2D                   
1 40907U 15049J   21087.42397245  .00001450  00000-0  76861-4 0  9995
2 40907  97.4849  90.5678 0015696 103.8140   2.2566 15.16876611305317
LILACSAT-2              
1 40908U 15049K   21087.41697157  .00000912  00000-0  53180-4 0  9991
2 40908  97.5039  88.5208 0017275 117.2598  20.3745 15.14344090304966
XW-2F                   
1 40910U 15049M   21087.41873417  .00002306  00000-0  11393-3 0  9997
2 40910  97.4737  93.5421 0016193  92.4870  14.1708 15.18766409305429
XW-2B                   
1 40911U 15049N   21087.42819330  .00001489  00000-0  79045-4 0  9993
2 40911  97.4856  91.2636 0015628 104.5145  33.3585 15.16795919305205
KAITUO 1B               
1 40912U 15049P   21087.41923251  .00002669  00000-0  12217-3 0  9999
2 40912  97.4480  97.8930 0016242  68.9865  40.7114 15.21269101305871
TIANWANG 1C (TW-1C)     
1 40926U 15051B   21057.93770894  .05243455  22735-5  10757-2 0  9999
2 40926  97.0197 120.9742 0006610 258.8279 223.7215 16.31196197307135
TIANWANG 1A (TW-1A)     
1 40928U 15051D   21087.34437613  .00006646  00000-0  14261-3 0  9993
2 40928  97.0851 114.2091 0008290 220.8075 266.0656 15.45007086309162
LAPAN-A2                
1 40931U 15052B   21087.49534255  .00000764  00000-0  17333-4 0  9993
2 40931   5.9970 109.8611 0012619 343.2688  16.7844 14.76668611297316
E-ST@R-II               
1 41459U 16025D   21087.32392270  .00001832  00000-0  93708-4 0  9998
2 41459  98.1262 218.7744 0160497 336.4523  22.9414 15.07660730270195
AAUSAT 4                
1 41460U 16025E   21087.31443626  .00003203  00000-0  15377-3 0  9990
2 41460  98.1255 222.2427 0148188 321.4129  37.6589 15.10520401270466
NUSAT-1 (FRESCO)        
1 41557U 16033B   21087.52973272  .00003210  00000-0  11606-3 0  9993
2 41557  97.3915 181.9548 0013731 155.5728 331.3914 15.29100133269165
